{
  "type": "FeatureCollection",
  "features": [
    {
      "type": "Feature",
      "properties": {
        "norad_id": 40376,
        "name": "SMAP",
        "group": "resource",
        "lat": 79.5652004216988,
        "lon": -123.10629364904882,
        "alt_km": 674.081477397619,
        "timestamp": "2025-12-27T11:23:19.534596+00:00",
        "meta_object_name": "SMAP",
        "meta_object_id": "2015-003A",
        "meta_epoch": "2025-12-27T04:23:06.499104",
        "meta_mean_motion": 14.63363282,
        "meta_eccentricity": 0.0001243,
        "meta_inclination": 98.1291,
        "meta_ra_of_asc_node": 5.6984,
        "meta_arg_of_pericenter": 92.3802,
        "meta_mean_anomaly": 267.7542,
        "meta_ephemeris_type": 0,
        "meta_classification_type": "U",
        "meta_norad_cat_id": 40376,
        "meta_element_set_no": 999,
        "meta_rev_at_epoch": 58246,
        "meta_bstar": 0.00013906,
        "meta_mean_motion_dot": 6.71e-06,
        "meta_mean_motion_ddot": 0,
        "tle_line1": "1 40376U 15003A   25361.18271411  .00000671  00000+0  13906-3 0  9996",
        "tle_line2": "2 40376  98.1291   5.6984 0001243  92.3802 267.7542 14.63363282582464"
      },
      "geometry": {
        "type": "Point",
        "coordinates": [
          -123.10629364904882,
          79.5652004216988
        ]
      }
    },
    {
      "type": "Feature",
      "properties": {
        "norad_id": 40536,
        "name": "KOMPSAT-3A",
        "group": "resource",
        "lat": 68.0909538372193,
        "lon": 176.24855276273664,
        "alt_km": 422.51296081334385,
        "timestamp": "2025-12-27T11:23:19.534606+00:00",
        "meta_object_name": "KOMPSAT-3A",
        "meta_object_id": "2015-014A",
        "meta_epoch": "2025-12-27T04:41:33.200160",
        "meta_mean_motion": 15.44489656,
        "meta_eccentricity": 0.0005662,
        "meta_inclination": 97.6807,
        "meta_ra_of_asc_node": 336.3468,
        "meta_arg_of_pericenter": 96.386,
        "meta_mean_anomaly": 263.8032,
        "meta_ephemeris_type": 0,
        "meta_classification_type": "U",
        "meta_norad_cat_id": 40536,
        "meta_element_set_no": 999,
        "meta_rev_at_epoch": 59518,
        "meta_bstar": 0.00049298,
        "meta_mean_motion_dot": 0.00022799,
        "meta_mean_motion_ddot": 0,
        "tle_line1": "1 40536U 15014A   25361.19552315  .00022799  00000+0  49298-3 0  9990",
        "tle_line2": "2 40536  97.6807 336.3468 0005662  96.3860 263.8032 15.44489656595185"
      },
      "geometry": {
        "type": "Point",
        "coordinates": [
          176.24855276273664,
          68.0909538372193
        ]
      }
    },
    {
      "type": "Feature",
      "properties": {
        "norad_id": 40697,
        "name": "SENTINEL-2A",
        "group": "resource",
        "lat": 40.88206954678308,
        "lon": 66.29763582212395,
        "alt_km": 785.2397897665014,
        "timestamp": "2025-12-27T11:23:19.534616+00:00",
        "meta_object_name": "SENTINEL-2A",
        "meta_object_id": "2015-028A",
        "meta_epoch": "2025-12-27T04:28:56.652384",
        "meta_mean_motion": 14.30811288,
        "meta_eccentricity": 0.0001035,
        "meta_inclination": 98.5723,
        "meta_ra_of_asc_node": 73.5169,
        "meta_arg_of_pericenter": 89.6382,
        "meta_mean_anomaly": 270.4919,
        "meta_ephemeris_type": 0,
        "meta_classification_type": "U",
        "meta_norad_cat_id": 40697,
        "meta_element_set_no": 999,
        "meta_rev_at_epoch": 54913,
        "meta_bstar": 6.2706e-05,
        "meta_mean_motion_dot": 1.21e-06,
        "meta_mean_motion_ddot": 0,
        "tle_line1": "1 40697U 15028A   25361.18676681  .00000121  00000+0  62706-4 0  9990",
        "tle_line2": "2 40697  98.5723  73.5169 0001035  89.6382 270.4919 14.30811288549138"
      },
      "geometry": {
        "type": "Point",
        "coordinates": [
          66.29763582212395,
          40.88206954678308
        ]
      }
    },
    {
      "type": "Feature",
      "properties": {
        "norad_id": 40701,
        "name": "GAOFEN-8",
        "group": "resource",
        "lat": 46.45601793707551,
        "lon": 172.16467459163573,
        "alt_km": 438.7623349370597,
        "timestamp": "2025-12-27T11:23:19.534626+00:00",
        "meta_object_name": "GAOFEN-8",
        "meta_object_id": "2015-030A",
        "meta_epoch": "2025-12-27T04:56:38.046624",
        "meta_mean_motion": 15.39076856,
        "meta_eccentricity": 0.0011589,
        "meta_inclination": 97.6905,
        "meta_ra_of_asc_node": 180.057,
        "meta_arg_of_pericenter": 88.2479,
        "meta_mean_anomaly": 272.0093,
        "meta_ephemeris_type": 0,
        "meta_classification_type": "U",
        "meta_norad_cat_id": 40701,
        "meta_element_set_no": 999,
        "meta_rev_at_epoch": 58493,
        "meta_bstar": 0.00034575,
        "meta_mean_motion_dot": 0.00013332,
        "meta_mean_motion_ddot": 0,
        "tle_line1": "1 40701U 15030A   25361.20599591  .00013332  00000+0  34575-3 0  9996",
        "tle_line2": "2 40701  97.6905 180.0570 0011589  88.2479 272.0093 15.39076856584935"
      },
      "geometry": {
        "type": "Point",
        "coordinates": [
          172.16467459163573,
          46.45601793707551
        ]
      }
    },
    {
      "type": "Feature",
      "properties": {
        "norad_id": 40718,
        "name": "CARBONITE 1 (CBNT-1)",
        "group": "resource",
        "lat": -70.06048092151867,
        "lon": -19.848351242195672,
        "alt_km": 632.7099000745748,
        "timestamp": "2025-12-27T11:23:19.534636+00:00",
        "meta_object_name": "CARBONITE 1 (CBNT-1)",
        "meta_object_id": "2015-032D",
        "meta_epoch": "2025-12-27T03:46:51.658176",
        "meta_mean_motion": 14.82808201,
        "meta_eccentricity": 0.0015406,
        "meta_inclination": 97.6408,
        "meta_ra_of_asc_node": 181.5672,
        "meta_arg_of_pericenter": 135.1605,
        "meta_mean_anomaly": 225.0857,
        "meta_ephemeris_type": 0,
        "meta_classification_type": "U",
        "meta_norad_cat_id": 40718,
        "meta_element_set_no": 999,
        "meta_rev_at_epoch": 56384,
        "meta_bstar": 7.792e-05,
        "meta_mean_motion_dot": 5.81e-06,
        "meta_mean_motion_ddot": 0,
        "tle_line1": "1 40718U 15032D   25361.15754234  .00000581  00000+0  77920-4 0  9991",
        "tle_line2": "2 40718  97.6408 181.5672 0015406 135.1605 225.0857 14.82808201563842"
      },
      "geometry": {
        "type": "Point",
        "coordinates": [
          -19.848351242195672,
          -70.06048092151867
        ]
      }
    },
    {
      "type": "Feature",
      "properties": {
        "norad_id": 40878,
        "name": "YAOGAN-27",
        "group": "resource",
        "lat": 58.13279088517759,
        "lon": -172.90626601964547,
        "alt_km": 1197.7675177847132,
        "timestamp": "2025-12-27T11:23:19.534646+00:00",
        "meta_object_name": "YAOGAN-27",
        "meta_object_id": "2015-040A",
        "meta_epoch": "2025-12-27T05:18:18.651744",
        "meta_mean_motion": 13.16060108,
        "meta_eccentricity": 0.0007583,
        "meta_inclination": 100.1026,
        "meta_ra_of_asc_node": 350.1865,
        "meta_arg_of_pericenter": 250.7819,
        "meta_mean_anomaly": 109.2474,
        "meta_ephemeris_type": 0,
        "meta_classification_type": "U",
        "meta_norad_cat_id": 40878,
        "meta_element_set_no": 999,
        "meta_rev_at_epoch": 49504,
        "meta_bstar": -0.00082809,
        "meta_mean_motion_dot": -3.57e-06,
        "meta_mean_motion_ddot": 0,
        "tle_line1": "1 40878U 15040A   25361.22104921 -.00000357  00000+0 -82809-3 0  9991",
        "tle_line2": "2 40878 100.1026 350.1865 0007583 250.7819 109.2474 13.16060108495047"
      },
      "geometry": {
        "type": "Point",
        "coordinates": [
          -172.90626601964547,
          58.13279088517759
        ]
      }
    },
    {
      "type": "Feature",
      "properties": {
        "norad_id": 40894,
        "name": "GAOFEN-9 01",
        "group": "resource",
        "lat": 25.311134255846977,
        "lon": -136.56186680214918,
        "alt_km": 639.453622447777,
        "timestamp": "2025-12-27T11:23:19.534656+00:00",
        "meta_object_name": "GAOFEN-9 01",
        "meta_object_id": "2015-047A",
        "meta_epoch": "2025-12-27T04:12:54.304992",
        "meta_mean_motion": 14.82458304,
        "meta_eccentricity": 0.0027205,
        "meta_inclination": 97.6524,
        "meta_ra_of_asc_node": 39.5065,
        "meta_arg_of_pericenter": 347.4179,
        "meta_mean_anomaly": 12.6353,
        "meta_ephemeris_type": 0,
        "meta_classification_type": "U",
        "meta_norad_cat_id": 40894,
        "meta_element_set_no": 999,
        "meta_rev_at_epoch": 55470,
        "meta_bstar": 0.00017478,
        "meta_mean_motion_dot": 1.359e-05,
        "meta_mean_motion_ddot": 0,
        "tle_line1": "1 40894U 15047A   25361.17562853  .00001359  00000+0  17478-3 0  9993",
        "tle_line2": "2 40894  97.6524  39.5065 0027205 347.4179  12.6353 14.82458304554709"
      },
      "geometry": {
        "type": "Point",
        "coordinates": [
          -136.56186680214918,
          25.311134255846977
        ]
      }
    }
  ]
}